format  = 'OEF2.0'       ! file format
rectype = '1L'           ! record type (1L/ML)
elem    = 'EQU'          ! type of orbital elements
refsys  = ECLM J2000     ! default reference system
END_OF_HEADER
'va_000318'    57291.958166  1.459798702362  0.285877268  0.187538214 -0.001113689 -0.001969896   34.9426313 22.96  0.15  0
'va_000319'    57291.958166  1.459799249892  0.285877471  0.187538352 -0.001113690 -0.001969897   34.9426471 22.96  0.15  0
'va_000320'    57291.958166  1.459799799892  0.285877676  0.187538490 -0.001113690 -0.001969898   34.9426630 22.96  0.15  0
'va_000321'    57291.958166  1.459800352414  0.285877881  0.187538629 -0.001113691 -0.001969899   34.9426790 22.96  0.15  0
'va_000322'    57291.958166  1.459800907511  0.285878087  0.187538769 -0.001113692 -0.001969900   34.9426950 22.96  0.15  0
'va_000323'    57291.958166  1.459801465234  0.285878295  0.187538910 -0.001113693 -0.001969900   34.9427112 22.96  0.15  0
'va_000324'    57291.958166  1.459802025639  0.285878503  0.187539051 -0.001113693 -0.001969901   34.9427274 22.96  0.15  0
'va_000325'    57291.958166  1.459802588782  0.285878712  0.187539193 -0.001113694 -0.001969902   34.9427437 22.96  0.15  0
'va_000326'    57291.958166  1.459803154720  0.285878923  0.187539336 -0.001113695 -0.001969903   34.9427600 22.96  0.15  0
'va_000327'    57291.958166  1.459803723513  0.285879134  0.187539479 -0.001113696 -0.001969904   34.9427765 22.96  0.15  0
'va_000328'    57291.958166  1.459804295219  0.285879347  0.187539623 -0.001113697 -0.001969905   34.9427930 22.96  0.15  0
'va_000329'    57291.958166  1.459804869902  0.285879560  0.187539768 -0.001113697 -0.001969906   34.9428096 22.96  0.15  0
'va_000330'    57291.958166  1.459805447625  0.285879775  0.187539913 -0.001113698 -0.001969907   34.9428263 22.96  0.15  0
'va_000331'    57291.958166  1.459806028453  0.285879991  0.187540060 -0.001113699 -0.001969907   34.9428431 22.96  0.15  0
'va_000332'    57291.958166  1.459806612453  0.285880208  0.187540207 -0.001113700 -0.001969908   34.9428600 22.96  0.15  0
'va_000333'    57291.958166  1.459807199694  0.285880426  0.187540355 -0.001113701 -0.001969909   34.9428770 22.96  0.15  0
'va_000334'    57291.958166  1.459807790247  0.285880646  0.187540504 -0.001113701 -0.001969910   34.9428941 22.96  0.15  0
'va_000335'    57291.958166  1.459808384185  0.285880866  0.187540653 -0.001113702 -0.001969911   34.9429113 22.96  0.15  0
'va_000336'    57291.958166  1.459808981582  0.285881088  0.187540804 -0.001113703 -0.001969912   34.9429286 22.96  0.15  0
'va_000337'    57291.958166  1.459809582515  0.285881312  0.187540955 -0.001113704 -0.001969913   34.9429459 22.96  0.15  0
'va_000338'    57291.958166  1.459810187064  0.285881537  0.187541108 -0.001113705 -0.001969914   34.9429634 22.96  0.15  0
'va_000339'    57291.958166  1.459810795310  0.285881763  0.187541261 -0.001113706 -0.001969915   34.9429810 22.96  0.15  0
'va_000340'    57291.958166  1.459811407337  0.285881990  0.187541415 -0.001113706 -0.001969916   34.9429987 22.96  0.15  0
'va_000341'    57291.958166  1.459812023231  0.285882219  0.187541570 -0.001113707 -0.001969917   34.9430165 22.96  0.15  0
'va_000342'    57291.958166  1.459812643082  0.285882449  0.187541727 -0.001113708 -0.001969918   34.9430345 22.96  0.15  0
'va_000343'    57291.958166  1.459813266981  0.285882681  0.187541884 -0.001113709 -0.001969919   34.9430525 22.96  0.15  0
'va_000344'    57291.958166  1.459813895023  0.285882915  0.187542042 -0.001113710 -0.001969920   34.9430707 22.96  0.15  0
'va_000345'    57291.958166  1.459814527306  0.285883150  0.187542201 -0.001113711 -0.001969921   34.9430889 22.96  0.15  0
'va_000346'    57291.958166  1.459815163930  0.285883386  0.187542362 -0.001113712 -0.001969922   34.9431074 22.96  0.15  0
'va_000347'    57291.958166  1.459815805000  0.285883625  0.187542523 -0.001113713 -0.001969923   34.9431259 22.96  0.15  0
'va_000348'    57291.958166  1.459816450623  0.285883865  0.187542686 -0.001113713 -0.001969924   34.9431446 22.96  0.15  0
'va_000349'    57291.958166  1.459817100911  0.285884106  0.187542850 -0.001113714 -0.001969925   34.9431634 22.96  0.15  0
'va_000350'    57291.958166  1.459817755977  0.285884350  0.187543015 -0.001113715 -0.001969926   34.9431823 22.96  0.15  0
'va_000351'    57291.958166  1.459818415942  0.285884595  0.187543181 -0.001113716 -0.001969927   34.9432014 22.96  0.15  0
'va_000352'    57291.958166  1.459819080927  0.285884842  0.187543349 -0.001113717 -0.001969928   34.9432206 22.96  0.15  0
'va_000353'    57291.958166  1.459819751060  0.285885091  0.187543518 -0.001113718 -0.001969929   34.9432400 22.96  0.15  0
'va_000354'    57291.958166  1.459820426472  0.285885342  0.187543688 -0.001113719 -0.001969930   34.9432596 22.96  0.15  0
'va_000355'    57291.958166  1.459821107301  0.285885595  0.187543859 -0.001113720 -0.001969931   34.9432793 22.96  0.15  0
'va_000356'    57291.958166  1.459821793687  0.285885851  0.187544032 -0.001113721 -0.001969932   34.9432991 22.96  0.15  0
'va_000357'    57291.958166  1.459822485778  0.285886108  0.187544207 -0.001113722 -0.001969933   34.9433191 22.96  0.15  0
'va_000358'    57291.958166  1.459823183725  0.285886367  0.187544383 -0.001113723 -0.001969934   34.9433393 22.96  0.15  0
'va_000359'    57291.958166  1.459823887686  0.285886629  0.187544560 -0.001113724 -0.001969935   34.9433597 22.96  0.15  0
'va_000360'    57291.958166  1.459824597826  0.285886893  0.187544739 -0.001113725 -0.001969936   34.9433802 22.96  0.15  0
'va_000361'    57291.958166  1.459825314314  0.285887159  0.187544919 -0.001113726 -0.001969937   34.9434009 22.96  0.15  0
'va_000362'    57291.958166  1.459826037329  0.285887428  0.187545102 -0.001113727 -0.001969938   34.9434218 22.96  0.15  0
'va_000363'    57291.958166  1.459826767055  0.285887699  0.187545285 -0.001113728 -0.001969939   34.9434429 22.96  0.15  0
'va_000364'    57291.958166  1.459827503683  0.285887973  0.187545471 -0.001113729 -0.001969941   34.9434642 22.96  0.15  0
'va_000365'    57291.958166  1.459828247414  0.285888249  0.187545658 -0.001113730 -0.001969942   34.9434858 22.96  0.15  0
'va_000366'    57291.958166  1.459828998457  0.285888528  0.187545848 -0.001113731 -0.001969943   34.9435075 22.96  0.15  0
'va_000367'    57291.958166  1.459829757028  0.285888810  0.187546039 -0.001113732 -0.001969944   34.9435294 22.96  0.15  0
'va_000368'    57291.958166  1.459830523355  0.285889095  0.187546232 -0.001113733 -0.001969945   34.9435516 22.96  0.15  0
'va_000369'    57291.958166  1.459831297675  0.285889383  0.187546427 -0.001113734 -0.001969946   34.9435740 22.96  0.15  0
'va_000370'    57291.958166  1.459832080235  0.285889674  0.187546624 -0.001113735 -0.001969948   34.9435966 22.96  0.15  0
'va_000371'    57291.958166  1.459832871294  0.285889968  0.187546824 -0.001113736 -0.001969949   34.9436195 22.96  0.15  0
'va_000372'    57291.958166  1.459833671124  0.285890265  0.187547025 -0.001113737 -0.001969950   34.9436426 22.96  0.15  0
'va_000373'    57291.958166  1.459834480008  0.285890566  0.187547229 -0.001113738 -0.001969951   34.9436660 22.96  0.15  0
'va_000374'    57291.958166  1.459835298243  0.285890870  0.187547435 -0.001113739 -0.001969953   34.9436897 22.96  0.15  0
'va_000375'    57291.958166  1.459836126143  0.285891178  0.187547644 -0.001113741 -0.001969954   34.9437136 22.96  0.15  0
'va_000376'    57291.958166  1.459836964033  0.285891489  0.187547855 -0.001113742 -0.001969955   34.9437378 22.96  0.15  0
'va_000377'    57291.958166  1.459837812260  0.285891804  0.187548069 -0.001113743 -0.001969956   34.9437624 22.96  0.15  0
'va_000378'    57291.958166  1.459838671185  0.285892124  0.187548285 -0.001113744 -0.001969958   34.9437872 22.96  0.15  0
'va_000379'    57291.958166  1.459839541188  0.285892447  0.187548504 -0.001113745 -0.001969959   34.9438124 22.96  0.15  0
'va_000380'    57291.958166  1.459840422673  0.285892775  0.187548726 -0.001113747 -0.001969960   34.9438379 22.96  0.15  0
'va_000381'    57291.958166  1.459841316062  0.285893107  0.187548951 -0.001113748 -0.001969962   34.9438637 22.96  0.15  0
'va_000382'    57291.958166  1.459842221802  0.285893443  0.187549180 -0.001113749 -0.001969963   34.9438899 22.96  0.15  0
'va_000383'    57291.958166  1.459843140367  0.285893785  0.187549411 -0.001113750 -0.001969965   34.9439165 22.96  0.15  0
'va_000384'    57291.958166  1.459844072257  0.285894131  0.187549646 -0.001113752 -0.001969966   34.9439434 22.96  0.15  0
'va_000385'    57291.958166  1.459845018002  0.285894483  0.187549884 -0.001113753 -0.001969968   34.9439708 22.96  0.15  0
'va_000386'    57291.958166  1.459845978162  0.285894839  0.187550126 -0.001113754 -0.001969969   34.9439985 22.96  0.15  0
'va_000387'    57291.958166  1.459846953337  0.285895202  0.187550372 -0.001113756 -0.001969971   34.9440267 22.96  0.15  0
'va_000388'    57291.958166  1.459847944159  0.285895570  0.187550622 -0.001113757 -0.001969972   34.9440554 22.96  0.15  0
'va_000389'    57291.958166  1.459848951304  0.285895944  0.187550875 -0.001113758 -0.001969974   34.9440845 22.96  0.15  0
'va_000390'    57291.958166  1.459849975493  0.285896325  0.187551133 -0.001113760 -0.001969975   34.9441141 22.96  0.15  0
'va_000391'    57291.958166  1.459851017494  0.285896712  0.187551396 -0.001113761 -0.001969977   34.9441443 22.96  0.15  0
'va_000392'    57291.958166  1.459852078131  0.285897107  0.187551663 -0.001113763 -0.001969978   34.9441749 22.96  0.15  0
'va_000393'    57291.958166  1.459853158283  0.285897508  0.187551935 -0.001113764 -0.001969980   34.9442062 22.96  0.15  0
'va_000394'    57291.958166  1.459854258897  0.285897917  0.187552213 -0.001113766 -0.001969982   34.9442380 22.96  0.15  0
'va_000395'    57291.958166  1.459855380988  0.285898334  0.187552495 -0.001113767 -0.001969984   34.9442705 22.96  0.15  0
'va_000396'    57291.958166  1.459856525651  0.285898760  0.187552784 -0.001113769 -0.001969985   34.9443036 22.96  0.15  0
